ONEWEB-0116             
1 48046U 21025E   25017.86254564  .00000187  00000+0  47640-3 0  9996
2 48046  87.8893  62.6770 0001686  99.7521 260.3798 13.13469933186001
ONEWEB-0150             
1 48047U 21025F   25017.83715018 -.00000028  00000+0 -11222-3 0  9993
2 48047  87.8891  62.6880 0001977  93.6278 266.5077 13.13468496185894
ONEWEB-0107             
1 48048U 21025G   25017.83872895 -.00000259  00000+0 -74357-3 0  9995
2 48048  87.8889  62.6858 0002284  98.8883 261.2505 13.13469600185872
ONEWEB-0101             
1 48049U 21025H   25017.87841675  .00000386  00000+0  10220-2 0  9999
2 48049  87.8895  62.7070 0001936  99.9454 260.1893 13.13469018185855
ONEWEB-0113             
1 48050U 21025J   25017.85619523  .00000061  00000+0  13283-3 0  9997
2 48050  87.8894  62.6914 0001735  98.1797 261.9529 13.13469752185939
ONEWEB-0112             
1 48051U 21025K   25017.84349614 -.00000235  00000+0 -67720-3 0  9998
2 48051  87.8887  62.6819 0001861  96.0731 264.0610 13.13469699185947
ONEWEB-0156             
1 48052U 21025L   25017.62448399 -.00000060  00000+0 -19911-3 0  9990
2 48052  87.8892  62.7313 0001879  96.9157 263.2186 13.13469308185894
ONEWEB-0161             
1 48053U 21025M   25017.82603674 -.00000107  00000+0 -32776-3 0  9998
2 48053  87.8893  62.7038 0002001  97.3428 262.7928 13.13469588185858
